AOR-E (EGNOS/PRN 120)   
1 24307U 96053A   18289.86945525 -.00000133  00000-0  00000-0 0  9999
2 24307   3.6173  75.2348 0004475 142.4987 105.1169  1.00271331 80911
CRE (WAAS/PRN 138)      
1 28868U 05036A   18290.19478771 -.00000085  00000-0  00000+0 0  9993
2 28868   0.0342  53.4585 0000876  93.4040 201.6371  1.00272267 48081
CRW (WAAS/PRN 135)      
1 28884U 05041A   18289.64655853  .00000067  00000-0  00000-0 0  9993
2 28884   0.0481  96.1294 0001828 108.5329 280.2336  1.00273041 47679
IOR-W (EGNOS/PRN 126)   
1 28899U 05044A   18289.81051474  .00000001  00000-0  00000-0 0  9998
2 28899   2.7241  21.1018 0002985 193.6634 166.2051  1.00272407 47435
MTSAT-2 (MSAS/PRN 137)  
1 28937U 06004A   18290.37202213 -.00000253  00000-0  00000+0 0  9999
2 28937   0.0060 281.3488 0003723 282.0343 101.4141  1.00273350 46270
QZS-1 (QZSS/PRN 183)    
1 37158U 10045A   18288.96183886 -.00000193  00000-0  00000+0 0  9993
2 37158  41.1482 152.3051 0747416 270.3258  81.2403  1.00296073 29624
GSAT-8 (GAGAN/PRN 127)  
1 37605U 11022A   18289.88350022  .00000073  00000-0  00000-0 0  9993
2 37605   0.0954  95.5481 0006719 154.2468 148.7191  1.00272889 25135
LUCH 5A (SDCM/PRN 140)  
1 37951U 11074B   18289.90557089 -.00000053  00000-0  00000-0 0  9998
2 37951   2.0398 141.2987 0002068  93.3536 283.8106  1.00274487 25116
SES-5 (EGNOS/PRN 136)   
1 38652U 12036A   18290.21299424  .00000023  00000-0  00000+0 0  9993
2 38652   0.0288 253.9682 0001983 300.6469 272.7279  1.00270754 22992
GSAT-10 (GAGAN/PRN 128) 
1 38779U 12051B   18289.69948343 -.00000177  00000-0  00000-0 0  9993
2 38779   0.0801  96.2637 0000938  57.8393 205.9266  1.00271230 22036
LUCH 5B (SDCM/PRN 125)  
1 38977U 12061A   18289.88313109 -.00000139  00000-0  00000-0 0  9999
2 38977   4.5106  71.3780 0001023 231.1999  24.4543  1.00271917 22091
ASTRA 5B (EGNOS/PRN 123)
1 39617U 14011B   18289.87878948  .00000143  00000-0  00000-0 0  9998
2 39617   0.0568 300.3506 0003892 256.6921 176.1822  1.00272434 16587
LUCH 5V (SDCM/PRN 141)  
1 39727U 14023A   18289.67603845 -.00000281  00000-0  00000-0 0  9997
2 39727   1.7317 300.2323 0002126 297.4392 125.4970  1.00267194534447
GSAT-15 (GAGAN/PRN 139) 
1 41028U 15065A   18289.67046648 -.00000270  00000-0  00000-0 0  9991
2 41028   0.0576  86.2191 0001509 106.8881 166.9137  1.00271213 10774
E 117 W B (WAAS/PRN 131)
1 41589U 16038B   18289.25635231 -.00000024  00000-0  00000+0 0  9996
2 41589   0.0119  74.6609 0000306 183.1608 102.1993  1.00270671  8623
QZS-2 (QZSS/PRN 184)    
1 42738U 17028A   18289.30675520 -.00000203  00000-0  00000-0 0  9994
2 42738  44.0085 282.9033 0729867 272.3007  79.3118  1.00257648  5067
